ONEWEB-0050             
1 45453U 20020AF  26050.08736713  .00001673  00000+0  17171-3 0  9999
2 45453  88.9192 249.3032 0005292  60.4486 299.7270 14.89927417322790
ONEWEB-0034             
1 45454U 20020AG  26050.01808385 -.00000343  00000+0 -10025-2 0  9993
2 45454  87.8838  44.5602 0001851  87.7881 272.3459 13.11415687287108
ONEWEB-0060             
1 45455U 20020AH  26050.29446105  .00000114  00000+0  28568-3 0  9998
2 45455  87.8826  44.5167 0000787  89.5049 270.6170 13.11414490287095
ONEWEB-0086             
1 45456U 20020AJ  26049.96808737  .00000557  00000+0  15355-2 0  9994
2 45456  87.8839  44.5680 0001408 108.7870 251.3411 13.11417967287116
ONEWEB-0088             
1 45457U 20020AK  26050.02233466 -.00000231  00000+0 -68865-3 0  9991
2 45457  87.8848  44.5198 0001858  76.9861 283.1475 13.11419081287051
ONEWEB-0102             
1 47258U 20100A   26050.27131225  .00000425  00000+0  11471-2 0  9991
2 47258  87.8970  14.0844 0001692  87.3252 272.8070 13.12442775249268
ONEWEB-0109             
1 47259U 20100B   26050.27977271  .00000308  00000+0  81955-3 0  9996
2 47259  87.8978  14.0559 0001913  85.4255 274.7092 13.12443196249092
ONEWEB-0110             
1 47260U 20100C   26049.92569888 -.00000362  00000+0 -10420-2 0  9999
2 47260  87.8976  14.1109 0001642  83.9271 276.2045 13.12443063249216
ONEWEB-0111             
1 47261U 20100D   26050.26114179  .00000330  00000+0  88313-3 0  9998
2 47261  87.8977  14.0624 0001735  80.4651 279.6674 13.12442592249093
ONEWEB-0114             
1 47262U 20100E   26049.91044746 -.00000210  00000+0 -61969-3 0  9998
2 47262  87.8977  14.1274 0002148  82.2641 277.8731 13.12443508249007
ONEWEB-0117             
1 47263U 20100F   26050.28316015  .00000194  00000+0  50435-3 0  9997
2 47263  87.8977  14.0487 0001821  82.3234 277.8102 13.12443233249062
ONEWEB-0118             
1 47264U 20100G   26049.93584339 -.00000151  00000+0 -45588-3 0  9992
2 47264  87.8977  14.1196 0002170  78.0718 282.0654 13.12441703249215
ONEWEB-0119             
1 47265U 20100H   26050.26622920  .00000342  00000+0  91398-3 0  9990
2 47265  87.8966  14.0812 0001845  82.7309 277.4029 13.12442741249233
ONEWEB-0120             
1 47266U 20100J   26050.29007092 -.00000077  00000+0 -24958-3 0  9996
2 47266  87.8969  14.0774 0001955  84.9389 275.1962 13.12442682249266
ONEWEB-0121             
1 47267U 20100K   26050.27807999  .00000331  00000+0  88565-3 0  9994
2 47267  87.8978  14.0543 0001648  83.5893 276.5424 13.12442958249179
ONEWEB-0122             
1 47268U 20100L   26050.27215436  .00000470  00000+0  12705-2 0  9990
2 47268  87.8979  14.0576 0001877  87.8515 272.2829 13.12442904249082
ONEWEB-0123             
1 47269U 20100M   26050.26791987  .00000549  00000+0  14904-2 0  9990
2 47269  87.8968  14.0797 0001950  80.1125 280.0224 13.12443451249221
