[{"OBJECT_NAME":"ONEWEB-0050","OBJECT_ID":"2020-020AF","EPOCH":"2026-02-19T02:05:48.520032","MEAN_MOTION":14.89927417,"ECCENTRICITY":0.00052922,"INCLINATION":88.9192,"RA_OF_ASC_NODE":249.3032,"ARG_OF_PERICENTER":60.4486,"MEAN_ANOMALY":299.727,"EPHEMERIS_TYPE":0,"CLASSIFICATION_TYPE":"U","NORAD_CAT_ID":45453,"ELEMENT_SET_NO":999,"REV_AT_EPOCH":32279,"BSTAR":0.00017171406,"MEAN_MOTION_DOT":1.673e-5,"MEAN_MOTION_DDOT":0},{"OBJECT_NAME":"ONEWEB-0034","OBJECT_ID":"2020-020AG","EPOCH":"2026-02-19T00:26:02.444640","MEAN_MOTION":13.11415687,"ECCENTRICITY":0.00018511,"INCLINATION":87.8838,"RA_OF_ASC_NODE":44.5602,"ARG_OF_PERICENTER":87.7881,"MEAN_ANOMALY":272.3459,"EPHEMERIS_TYPE":0,"CLASSIFICATION_TYPE":"U","NORAD_CAT_ID":45454,"ELEMENT_SET_NO":999,"REV_AT_EPOCH":28710,"BSTAR":-0.0010024713,"MEAN_MOTION_DOT":-3.43e-6,"MEAN_MOTION_DDOT":0},{"OBJECT_NAME":"ONEWEB-0060","OBJECT_ID":"2020-020AH","EPOCH":"2026-02-19T07:04:01.434720","MEAN_MOTION":13.1141449,"ECCENTRICITY":7.879e-5,"INCLINATION":87.8826,"RA_OF_ASC_NODE":44.5167,"ARG_OF_PERICENTER":89.5049,"MEAN_ANOMALY":270.617,"EPHEMERIS_TYPE":0,"CLASSIFICATION_TYPE":"U","NORAD_CAT_ID":45455,"ELEMENT_SET_NO":999,"REV_AT_EPOCH":28709,"BSTAR":0.0002856774,"MEAN_MOTION_DOT":1.14e-6,"MEAN_MOTION_DDOT":0},{"OBJECT_NAME":"ONEWEB-0086","OBJECT_ID":"2020-020AJ","EPOCH":"2026-02-18T23:14:02.748768","MEAN_MOTION":13.11417967,"ECCENTRICITY":0.00014089,"INCLINATION":87.8839,"RA_OF_ASC_NODE":44.568,"ARG_OF_PERICENTER":108.787,"MEAN_ANOMALY":251.3411,"EPHEMERIS_TYPE":0,"CLASSIFICATION_TYPE":"U","NORAD_CAT_ID":45456,"ELEMENT_SET_NO":999,"REV_AT_EPOCH":28711,"BSTAR":0.001535493,"MEAN_MOTION_DOT":5.57e-6,"MEAN_MOTION_DDOT":0},{"OBJECT_NAME":"ONEWEB-0088","OBJECT_ID":"2020-020AK","EPOCH":"2026-02-19T00:32:09.714624","MEAN_MOTION":13.11419081,"ECCENTRICITY":0.0001858,"INCLINATION":87.8848,"RA_OF_ASC_NODE":44.5198,"ARG_OF_PERICENTER":76.9861,"MEAN_ANOMALY":283.1475,"EPHEMERIS_TYPE":0,"CLASSIFICATION_TYPE":"U","NORAD_CAT_ID":45457,"ELEMENT_SET_NO":999,"REV_AT_EPOCH":28705,"BSTAR":-0.0006886514,"MEAN_MOTION_DOT":-2.31e-6,"MEAN_MOTION_DDOT":0},{"OBJECT_NAME":"ONEWEB-0102","OBJECT_ID":"2020-100A","EPOCH":"2026-02-19T06:30:41.378400","MEAN_MOTION":13.12442775,"ECCENTRICITY":0.00016921,"INCLINATION":87.897,"RA_OF_ASC_NODE":14.0844,"ARG_OF_PERICENTER":87.3252,"MEAN_ANOMALY":272.807,"EPHEMERIS_TYPE":0,"CLASSIFICATION_TYPE":"U","NORAD_CAT_ID":47258,"ELEMENT_SET_NO":999,"REV_AT_EPOCH":24926,"BSTAR":0.0011470957,"MEAN_MOTION_DOT":4.25e-6,"MEAN_MOTION_DDOT":0},{"OBJECT_NAME":"ONEWEB-0109","OBJECT_ID":"2020-100B","EPOCH":"2026-02-19T06:42:52.362144","MEAN_MOTION":13.12443196,"ECCENTRICITY":0.00019132,"INCLINATION":87.8978,"RA_OF_ASC_NODE":14.0559,"ARG_OF_PERICENTER":85.4255,"MEAN_ANOMALY":274.7092,"EPHEMERIS_TYPE":0,"CLASSIFICATION_TYPE":"U","NORAD_CAT_ID":47259,"ELEMENT_SET_NO":999,"REV_AT_EPOCH":24909,"BSTAR":0.00081954526,"MEAN_MOTION_DOT":3.08e-6,"MEAN_MOTION_DDOT":0},{"OBJECT_NAME":"ONEWEB-0110","OBJECT_ID":"2020-100C","EPOCH":"2026-02-18T22:13:00.383232","MEAN_MOTION":13.12443063,"ECCENTRICITY":0.0001642,"INCLINATION":87.8976,"RA_OF_ASC_NODE":14.1109,"ARG_OF_PERICENTER":83.9271,"MEAN_ANOMALY":276.2045,"EPHEMERIS_TYPE":0,"CLASSIFICATION_TYPE":"U","NORAD_CAT_ID":47260,"ELEMENT_SET_NO":999,"REV_AT_EPOCH":24921,"BSTAR":-0.001042,"MEAN_MOTION_DOT":-3.62e-6,"MEAN_MOTION_DDOT":0},{"OBJECT_NAME":"ONEWEB-0111","OBJECT_ID":"2020-100D","EPOCH":"2026-02-19T06:16:02.650656","MEAN_MOTION":13.12442592,"ECCENTRICITY":0.00017355,"INCLINATION":87.8977,"RA_OF_ASC_NODE":14.0624,"ARG_OF_PERICENTER":80.4651,"MEAN_ANOMALY":279.6674,"EPHEMERIS_TYPE":0,"CLASSIFICATION_TYPE":"U","NORAD_CAT_ID":47261,"ELEMENT_SET_NO":999,"REV_AT_EPOCH":24909,"BSTAR":0.0008831262,"MEAN_MOTION_DOT":3.3e-6,"MEAN_MOTION_DDOT":0},{"OBJECT_NAME":"ONEWEB-0114","OBJECT_ID":"2020-100E","EPOCH":"2026-02-18T21:51:02.660544","MEAN_MOTION":13.12443508,"ECCENTRICITY":0.00021487,"INCLINATION":87.8977,"RA_OF_ASC_NODE":14.1274,"ARG_OF_PERICENTER":82.2641,"MEAN_ANOMALY":277.8731,"EPHEMERIS_TYPE":0,"CLASSIFICATION_TYPE":"U","NORAD_CAT_ID":47262,"ELEMENT_SET_NO":999,"REV_AT_EPOCH":24900,"BSTAR":-0.00061969109,"MEAN_MOTION_DOT":-2.1e-6,"MEAN_MOTION_DDOT":0},{"OBJECT_NAME":"ONEWEB-0117","OBJECT_ID":"2020-100F","EPOCH":"2026-02-19T06:47:45.036960","MEAN_MOTION":13.12443233,"ECCENTRICITY":0.00018217,"INCLINATION":87.8977,"RA_OF_ASC_NODE":14.0487,"ARG_OF_PERICENTER":82.3234,"MEAN_ANOMALY":277.8102,"EPHEMERIS_TYPE":0,"CLASSIFICATION_TYPE":"U","NORAD_CAT_ID":47263,"ELEMENT_SET_NO":999,"REV_AT_EPOCH":24906,"BSTAR":0.00050435113,"MEAN_MOTION_DOT":1.94e-6,"MEAN_MOTION_DDOT":0},{"OBJECT_NAME":"ONEWEB-0118","OBJECT_ID":"2020-100G","EPOCH":"2026-02-18T22:27:36.868896","MEAN_MOTION":13.12441703,"ECCENTRICITY":0.000217,"INCLINATION":87.8977,"RA_OF_ASC_NODE":14.1196,"ARG_OF_PERICENTER":78.0718,"MEAN_ANOMALY":282.0654,"EPHEMERIS_TYPE":0,"CLASSIFICATION_TYPE":"U","NORAD_CAT_ID":47264,"ELEMENT_SET_NO":999,"REV_AT_EPOCH":24921,"BSTAR":-0.00045588,"MEAN_MOTION_DOT":-1.51e-6,"MEAN_MOTION_DDOT":0},{"OBJECT_NAME":"ONEWEB-0119","OBJECT_ID":"2020-100H","EPOCH":"2026-02-19T06:23:22.202880","MEAN_MOTION":13.12442741,"ECCENTRICITY":0.00018458,"INCLINATION":87.8966,"RA_OF_ASC_NODE":14.0812,"ARG_OF_PERICENTER":82.7309,"MEAN_ANOMALY":277.4029,"EPHEMERIS_TYPE":0,"CLASSIFICATION_TYPE":"U","NORAD_CAT_ID":47265,"ELEMENT_SET_NO":999,"REV_AT_EPOCH":24923,"BSTAR":0.00091398249,"MEAN_MOTION_DOT":3.42e-6,"MEAN_MOTION_DDOT":0},{"OBJECT_NAME":"ONEWEB-0120","OBJECT_ID":"2020-100J","EPOCH":"2026-02-19T06:57:42.127488","MEAN_MOTION":13.12442682,"ECCENTRICITY":0.00019551,"INCLINATION":87.8969,"RA_OF_ASC_NODE":14.0774,"ARG_OF_PERICENTER":84.9389,"MEAN_ANOMALY":275.1962,"EPHEMERIS_TYPE":0,"CLASSIFICATION_TYPE":"U","NORAD_CAT_ID":47266,"ELEMENT_SET_NO":999,"REV_AT_EPOCH":24926,"BSTAR":-0.00024957887,"MEAN_MOTION_DOT":-7.7e-7,"MEAN_MOTION_DDOT":0},{"OBJECT_NAME":"ONEWEB-0121","OBJECT_ID":"2020-100K","EPOCH":"2026-02-19T06:40:26.111136","MEAN_MOTION":13.12442958,"ECCENTRICITY":0.00016487,"INCLINATION":87.8978,"RA_OF_ASC_NODE":14.0543,"ARG_OF_PERICENTER":83.5893,"MEAN_ANOMALY":276.5424,"EPHEMERIS_TYPE":0,"CLASSIFICATION_TYPE":"U","NORAD_CAT_ID":47267,"ELEMENT_SET_NO":999,"REV_AT_EPOCH":24917,"BSTAR":0.00088565002,"MEAN_MOTION_DOT":3.31e-6,"MEAN_MOTION_DDOT":0},{"OBJECT_NAME":"ONEWEB-0122","OBJECT_ID":"2020-100L","EPOCH":"2026-02-19T06:31:54.136704","MEAN_MOTION":13.12442904,"ECCENTRICITY":0.00018771,"INCLINATION":87.8979,"RA_OF_ASC_NODE":14.0576,"ARG_OF_PERICENTER":87.8515,"MEAN_ANOMALY":272.2829,"EPHEMERIS_TYPE":0,"CLASSIFICATION_TYPE":"U","NORAD_CAT_ID":47268,"ELEMENT_SET_NO":999,"REV_AT_EPOCH":24908,"BSTAR":0.00127046,"MEAN_MOTION_DOT":4.7e-6,"MEAN_MOTION_DDOT":0},{"OBJECT_NAME":"ONEWEB-0123","OBJECT_ID":"2020-100M","EPOCH":"2026-02-19T06:25:48.276768","MEAN_MOTION":13.12443451,"ECCENTRICITY":0.00019501,"INCLINATION":87.8968,"RA_OF_ASC_NODE":14.0797,"ARG_OF_PERICENTER":80.1125,"MEAN_ANOMALY":280.0224,"EPHEMERIS_TYPE":0,"CLASSIFICATION_TYPE":"U","NORAD_CAT_ID":47269,"ELEMENT_SET_NO":999,"REV_AT_EPOCH":24922,"BSTAR":0.001490384,"MEAN_MOTION_DOT":5.49e-6,"MEAN_MOTION_DDOT":0}]
